{"type": "FeatureCollection", "features": [ {"type": "Feature", "properties": {"norad_id": 67006, "name": "STARLINK-36156", "group": "last-30-days", "lat": -69.97952062315278, "lon": -146.47986161132727, "alt_km": 298.4866061451439, "timestamp": "2025-12-19T22:41:51.099298+00:00", "meta": {"OBJECT_NAME": "STARLINK-36156", "OBJECT_ID": "2025-293D", "EPOCH": "2025-12-19T18:00:00.998784", "MEAN_MOTION": 15.93205722, "ECCENTRICITY": 0.000396, "INCLINATION": 69.9944, "RA_OF_ASC_NODE": 303.4338, "ARG_OF_PERICENTER": 263.6959, "MEAN_ANOMALY": 324.4619, "EPHEMERIS_TYPE": 0, "CLASSIFICATION_TYPE": "U", "NORAD_CAT_ID": 67006, "ELEMENT_SET_NO": 999, "REV_AT_EPOCH": 130, "BSTAR": -0.0029833, "MEAN_MOTION_DOT": -0.01053955, "MEAN_MOTION_DDOT": 0.0003371}, "tle": {"line1": "1 67006U 25293D   25353.75001156 -.01053955  33710-3 -29833-2 0  9997", "line2": "2 67006  69.9944 303.4338 0003960 263.6959 324.4619 15.93205722  1303"}}, "geometry": {"type": "Point", "coordinates": [-146.47986161132727, -69.97952062315278]}}, {"type": "Feature", "properties": {"norad_id": 67007, "name": "STARLINK-36123", "group": "last-30-days", "lat": -69.87747530523494, "lon": -153.18246969425925, "alt_km": 298.6611557743863, "timestamp": "2025-12-19T22:41:51.099308+00:00", "meta": {"OBJECT_NAME": "STARLINK-36123", "OBJECT_ID": "2025-293E", "EPOCH": "2025-12-19T18:00:00.998784", "MEAN_MOTION": 15.93148716, "ECCENTRICITY": 0.000391, "INCLINATION": 69.9943, "RA_OF_ASC_NODE": 303.4366, "ARG_OF_PERICENTER": 263.7702, "MEAN_ANOMALY": 322.1211, "EPHEMERIS_TYPE": 0, "CLASSIFICATION_TYPE": "U", "NORAD_CAT_ID": 67007, "ELEMENT_SET_NO": 999, "REV_AT_EPOCH": 130, "BSTAR": -0.0029754, "MEAN_MOTION_DOT": -0.01048036, "MEAN_MOTION_DDOT": 0.00033342}, "tle": {"line1": "1 67007U 25293E   25353.75001156 -.01048036  33342-3 -29754-2 0  9995", "line2": "2 67007  69.9943 303.4366 0003910 263.7702 322.1211 15.93148716  1308"}}, "geometry": {"type": "Point", "coordinates": [-153.18246969425925, -69.87747530523494]}}, {"type": "Feature", "properties": {"norad_id": 67008, "name": "STARLINK-36163", "group": "last-30-days", "lat": -69.72631937884464, "lon": -137.66336567646306, "alt_km": 298.3259564249074, "timestamp": "2025-12-19T22:41:51.099318+00:00", "meta": {"OBJECT_NAME": "STARLINK-36163", "OBJECT_ID": "2025-293F", "EPOCH": "2025-12-19T18:00:00.998784", "MEAN_MOTION": 15.93276214, "ECCENTRICITY": 0.0003927, "INCLINATION": 69.9945, "RA_OF_ASC_NODE": 303.4304, "ARG_OF_PERICENTER": 265.2502, "MEAN_ANOMALY": 325.9106, "EPHEMERIS_TYPE": 0, "CLASSIFICATION_TYPE": "U", "NORAD_CAT_ID": 67008, "ELEMENT_SET_NO": 999, "REV_AT_EPOCH": 130, "BSTAR": -0.002991, "MEAN_MOTION_DOT": -0.01060504, "MEAN_MOTION_DDOT": 0.00034122}, "tle": {"line1": "1 67008U 25293F   25353.75001156 -.01060504  34122-3 -29910-2 0  9991", "line2": "2 67008  69.9945 303.4304 0003927 265.2502 325.9106 15.93276214  1305"}}, "geometry": {"type": "Point", "coordinates": [-137.66336567646306, -69.72631937884464]}}, {"type": "Feature", "properties": {"norad_id": 67009, "name": "STARLINK-36118", "group": "last-30-days", "lat": -69.20002522120458, "lon": -130.71108299121116, "alt_km": 298.19683226032976, "timestamp": "2025-12-19T22:41:51.099348+00:00", "meta": {"OBJECT_NAME": "STARLINK-36118", "OBJECT_ID": "2025-293G", "EPOCH": "2025-12-19T18:00:00.998784", "MEAN_MOTION": 15.93334983, "ECCENTRICITY": 0.0003922, "INCLINATION": 69.9944, "RA_OF_ASC_NODE": 303.4275, "ARG_OF_PERICENTER": 263.9088, "MEAN_ANOMALY": 329.7086, "EPHEMERIS_TYPE": 0, "CLASSIFICATION_TYPE": "U", "NORAD_CAT_ID": 67009, "ELEMENT_SET_NO": 999, "REV_AT_EPOCH": 130, "BSTAR": -0.0029928, "MEAN_MOTION_DOT": -0.01064357, "MEAN_MOTION_DDOT": 0.00034372}, "tle": {"line1": "1 67009U 25293G   25353.75001156 -.01064357  34372-3 -29928-2 0  9998", "line2": "2 67009  69.9944 303.4275 0003922 263.9088 329.7086 15.93334983  1308"}}, "geometry": {"type": "Point", "coordinates": [-130.71108299121116, -69.20002522120458]}}, {"type": "Feature", "properties": {"norad_id": 67010, "name": "STARLINK-36189", "group": "last-30-days", "lat": -67.62818485547818, "lon": -119.42492741758603, "alt_km": 297.94387291208477, "timestamp": "2025-12-19T22:41:51.099359+00:00", "meta": {"OBJECT_NAME": "STARLINK-36189", "OBJECT_ID": "2025-293H", "EPOCH": "2025-12-19T18:00:00.998784", "MEAN_MOTION": 15.9344369, "ECCENTRICITY": 0.0003938, "INCLINATION": 69.9945, "RA_OF_ASC_NODE": 303.4222, "ARG_OF_PERICENTER": 262.6827, "MEAN_ANOMALY": 335.2986, "EPHEMERIS_TYPE": 0, "CLASSIFICATION_TYPE": "U", "NORAD_CAT_ID": 67010, "ELEMENT_SET_NO": 999, "REV_AT_EPOCH": 130, "BSTAR": -0.0029941, "MEAN_MOTION_DOT": -0.01070873, "MEAN_MOTION_DDOT": 0.000348}, "tle": {"line1": "1 67010U 25293H   25353.75001156 -.01070873  34800-3 -29941-2 0  9991", "line2": "2 67010  69.9945 303.4222 0003938 262.6827 335.2986 15.93443690  1304"}}, "geometry": {"type": "Point", "coordinates": [-119.42492741758603, -67.62818485547818]}}, {"type": "Feature", "properties": {"norad_id": 67011, "name": "STARLINK-36167", "group": "last-30-days", "lat": -68.62096766538848, "lon": -125.69377726280528, "alt_km": 298.0793264926533, "timestamp": "2025-12-19T22:41:51.099369+00:00", "meta": {"OBJECT_NAME": "STARLINK-36167", "OBJECT_ID": "2025-293J", "EPOCH": "2025-12-19T18:00:00.998784", "MEAN_MOTION": 15.93382401, "ECCENTRICITY": 0.0003921, "INCLINATION": 69.9941, "RA_OF_ASC_NODE": 303.4248, "ARG_OF_PERICENTER": 264.1692, "MEAN_ANOMALY": 331.3145, "EPHEMERIS_TYPE": 0, "CLASSIFICATION_TYPE": "U", "NORAD_CAT_ID": 67011, "ELEMENT_SET_NO": 999, "REV_AT_EPOCH": 130, "BSTAR": -0.0029914, "MEAN_MOTION_DOT": -0.01066516, "MEAN_MOTION_DDOT": 0.00034518}, "tle": {"line1": "1 67011U 25293J   25353.75001156 -.01066516  34518-3 -29914-2 0  9997", "line2": "2 67011  69.9941 303.4248 0003921 264.1692 331.3145 15.93382401  1304"}}, "geometry": {"type": "Point", "coordinates": [-125.69377726280528, -68.62096766538848]}}, {"type": "Feature", "properties": {"norad_id": 67012, "name": "STARLINK-36175", "group": "last-30-days", "lat": -66.66611875497063, "lon": -114.78544333202747, "alt_km": 297.8148970187458, "timestamp": "2025-12-19T22:41:51.099382+00:00", "meta": {"OBJECT_NAME": "STARLINK-36175", "OBJECT_ID": "2025-293K", "EPOCH": "2025-12-19T18:00:00.998784", "MEAN_MOTION": 15.93497415, "ECCENTRICITY": 0.0003908, "INCLINATION": 69.9941, "RA_OF_ASC_NODE": 303.4187, "ARG_OF_PERICENTER": 264.5249, "MEAN_ANOMALY": 335.4674, "EPHEMERIS_TYPE": 0, "CLASSIFICATION_TYPE": "U", "NORAD_CAT_ID": 67012, "ELEMENT_SET_NO": 999, "REV_AT_EPOCH": 130, "BSTAR": -0.0030086, "MEAN_MOTION_DOT": -0.01079005, "MEAN_MOTION_DDOT": 0.00035309}, "tle": {"line1": "1 67012U 25293K   25353.75001156 -.01079005  35309-3 -30086-2 0  9996", "line2": "2 67012  69.9941 303.4187 0003908 264.5249 335.4674 15.93497415  1308"}}, "geometry": {"type": "Point", "coordinates": [-114.78544333202747, -66.66611875497063]}}, {"type": "Feature", "properties": {"norad_id": 67013, "name": "STARLINK-35856", "group": "last-30-days", "lat": -65.31735153488013, "lon": -109.60187154224239, "alt_km": 297.7454283943207, "timestamp": "2025-12-19T22:41:51.099392+00:00", "meta": {"OBJECT_NAME": "STARLINK-35856", "OBJECT_ID": "2025-293L", "EPOCH": "2025-12-19T18:00:00.998784", "MEAN_MOTION": 15.93553682, "ECCENTRICITY": 0.000385, "INCLINATION": 69.9939, "RA_OF_ASC_NODE": 303.4165, "ARG_OF_PERICENTER": 262.7584, "MEAN_ANOMALY": 339.6998, "EPHEMERIS_TYPE": 0, "CLASSIFICATION_TYPE": "U", "NORAD_CAT_ID": 67013, "ELEMENT_SET_NO": 999, "REV_AT_EPOCH": 130, "BSTAR": -0.0029942, "MEAN_MOTION_DOT": -0.01077011, "MEAN_MOTION_DDOT": 0.00035209}, "tle": {"line1": "1 67013U 25293L   25353.75001156 -.01077011  35209-3 -29942-2 0  9990", "line2": "2 67013  69.9939 303.4165 0003850 262.7584 339.6998 15.93553682  1304"}}, "geometry": {"type": "Point", "coordinates": [-109.60187154224239, -65.31735153488013]}}, {"type": "Feature", "properties": {"norad_id": 67014, "name": "STARLINK-36207", "group": "last-30-days", "lat": -63.91688860161759, "lon": -105.25362722487634, "alt_km": 297.49583502009955, "timestamp": "2025-12-19T22:41:51.099402+00:00", "meta": {"OBJECT_NAME": "STARLINK-36207", "OBJECT_ID": "2025-293M", "EPOCH": "2025-12-19T18:00:00.998784", "MEAN_MOTION": 15.93615797, "ECCENTRICITY": 0.0003923, "INCLINATION": 69.9944, "RA_OF_ASC_NODE": 303.4139, "ARG_OF_PERICENTER": 266.3658, "MEAN_ANOMALY": 338.3871, "EPHEMERIS_TYPE": 0, "CLASSIFICATION_TYPE": "U", "NORAD_CAT_ID": 67014, "ELEMENT_SET_NO": 999, "REV_AT_EPOCH": 130, "BSTAR": -0.0030061, "MEAN_MOTION_DOT": -0.01084812, "MEAN_MOTION_DDOT": 0.00035704}, "tle": {"line1": "1 67014U 25293M   25353.75001156 -.01084812  35704-3 -30061-2 0  9992", "line2": "2 67014  69.9944 303.4139 0003923 266.3658 338.3871 15.93615797  1307"}}, "geometry": {"type": "Point", "coordinates": [-105.25362722487634, -63.91688860161759]}}, {"type": "Feature", "properties": {"norad_id": 67015, "name": "STARLINK-36093", "group": "last-30-days", "lat": -60.81381217458457, "lon": -97.87735689535579, "alt_km": 297.28515801644244, "timestamp": "2025-12-19T22:41:51.099412+00:00", "meta": {"OBJECT_NAME": "STARLINK-36093", "OBJECT_ID": "2025-293N", "EPOCH": "2025-12-19T18:00:00.998784", "MEAN_MOTION": 15.93728826, "ECCENTRICITY": 0.0003943, "INCLINATION": 69.9941, "RA_OF_ASC_NODE": 303.4082, "ARG_OF_PERICENTER": 263.2601, "MEAN_ANOMALY": 346.0346, "EPHEMERIS_TYPE": 0, "CLASSIFICATION_TYPE": "U", "NORAD_CAT_ID": 67015, "ELEMENT_SET_NO": 999, "REV_AT_EPOCH": 130, "BSTAR": -0.0030112, "MEAN_MOTION_DOT": -0.01093036, "MEAN_MOTION_DDOT": 0.00036247}, "tle": {"line1": "1 67015U 25293N   25353.75001156 -.01093036  36247-3 -30112-2 0  9991", "line2": "2 67015  69.9941 303.4082 0003943 263.2601 346.0346 15.93728826  1309"}}, "geometry": {"type": "Point", "coordinates": [-97.87735689535579, -60.81381217458457]}}]}